NORAD_CAT_ID,OBJECT_NAME,OBJECT_TYPE,EPOCH,MEAN_MOTION,ECCENTRICITY,INCLINATION,RA_OF_ASC_NODE,ARG_OF_PERICENTER,MEAN_ANOMALY,BSTAR,MEAN_MOTION_DOT,MEAN_MOTION_DDOT,TLE_LINE0,TLE_LINE1,TLE_LINE2,SEMIMAJOR_AXIS,PERIOD,APOGEE,PERIGEE,DECAYED
52857.0,STARLINK-4199,PAYLOAD,2023-06-09 21:05:50,15.08839923,9.59e-05,53.214,210.4018,73.0851,287.0247,7.4346e-05,8.96e-06,0.0,0 STARLINK-4199,1 52857U 22062AD  23160.87905707  .00000896  00000-0  74346-4 0  9995,2 52857  53.2140 210.4018 0000959  73.0851 287.0247 15.08839923 54385,6917.881,95.438,540.409,539.082,0.0
52857.0,STARLINK-4199,PAYLOAD,2023-06-10 12:59:42,15.08840022,9.94e-05,53.2152,207.4278,79.4351,280.6753,3.9742e-05,3.45e-06,0.0,0 STARLINK-4199,1 52857U 22062AD  23161.54145896  .00000345  00000-0  39742-4 0  9995,2 52857  53.2152 207.4278 0000994  79.4351 280.6753 15.08840022 54480,6917.88,95.438,540.433,539.058,0.0
52857.0,STARLINK-4199,PAYLOAD,2023-06-10 22:32:01,15.08837443,9.21e-05,53.2148,205.6445,74.8553,285.2541,6.6481e-06,-1.82e-06,0.0,0 STARLINK-4199,1 52857U 22062AD  23161.93890170 -.00000182  00000-0  66481-5 0  9991,2 52857  53.2148 205.6445 0000921  74.8553 285.2541 15.08837443 55035,6917.888,95.438,540.39,539.116,0.0
52857.0,STARLINK-4199,PAYLOAD,2023-06-11 12:50:29,15.08842692,9.41e-05,53.2148,202.9685,71.8331,288.2763,-3.2278e-05,-8.01e-06,0.0,0 STARLINK-4199,1 52857U 22062AD  23162.53506052 -.00000801  00000-0 -32278-4 0  9996,2 52857  53.2148 202.9685 0000941  71.8331 288.2763 15.08842692 54630,6917.872,95.437,540.388,539.086,0.0
52857.0,STARLINK-4199,PAYLOAD,2023-06-11 19:12:01,15.08837818,9.9e-05,53.2146,201.7781,75.9874,284.1228,-3.489e-06,-3.43e-06,0.0,0 STARLINK-4199,1 52857U 22062AD  23162.80002274 -.00000343  00000-0 -34890-5 0  9997,2 52857  53.2146 201.7781 0000990  75.9874 284.1228 15.08837818 54672,6917.887,95.438,540.437,539.067,0.0
52857.0,STARLINK-4199,PAYLOAD,2023-06-12 03:08:57,15.08836207,9.4e-05,53.2143,200.2916,77.0379,283.0718,5.7456e-05,6.27e-06,0.0,0 STARLINK-4199,1 52857U 22062AD  23163.13122245  .00000627  00000-0  57456-4 0  9990,2 52857  53.2143 200.2916 0000940  77.0379 283.0718 15.08836207 55215,6917.892,95.438,540.407,539.107,0.0
52857.0,STARLINK-4199,PAYLOAD,2023-06-12 09:30:30,15.08838574,9.54e-05,53.2143,199.1022,76.7752,283.3347,7.1427e-05,8.49e-06,0.0,0 STARLINK-4199,1 52857U 22062AD  23163.39618110  .00000849  00000-0  71427-4 0  9999,2 52857  53.2143 199.1022 0000954  76.7752 283.3347 15.08838574 54764,6917.885,95.438,540.41,539.09,0.0
52857.0,STARLINK-4199,PAYLOAD,2023-06-12 19:02:49,15.08835951,9.48e-05,53.2143,197.3182,74.5192,285.5905,3.0056e-05,1.91e-06,0.0,0 STARLINK-4199,1 52857U 22062AD  23163.79362489  .00000191  00000-0  30056-4 0  9991,2 52857  53.2143 197.3182 0000948  74.5192 285.5905 15.08835951 54825,6917.893,95.438,540.414,539.102,0.0
52857.0,STARLINK-4199,PAYLOAD,2023-06-13 12:32:03,15.08836453,9.45e-05,53.2145,194.0471,75.1598,284.9499,2.9657e-05,1.84e-06,0.0,0 STARLINK-4199,1 52857U 22062AD  23164.52226667  .00000184  00000-0  29657-4 0  9997,2 52857  53.2145 194.0471 0000945  75.1598 284.9499 15.08836453 55422,6917.891,95.438,540.41,539.102,0.0
52857.0,STARLINK-4199,PAYLOAD,2023-06-14 01:15:08,15.08837186,9.43e-05,53.2145,191.6679,75.151,284.9587,6.154e-05,6.92e-06,0.0,0 STARLINK-4199,1 52857U 22062AD  23165.05218627  .00000692  00000-0  61540-4 0  9994,2 52857  53.2145 191.6679 0000943  75.1510 284.9587 15.08837186 55014,6917.889,95.438,540.406,539.102,0.0
52857.0,STARLINK-4199,PAYLOAD,2023-06-14 18:44:23,15.08839476,9.28e-05,53.2147,188.3968,78.196,281.9136,5.2999e-05,5.56e-06,0.0,0 STARLINK-4199,1 52857U 22062AD  23165.78082547  .00000556  00000-0  52999-4 0  9991,2 52857  53.2147 188.3968 0000928  78.1960 281.9136 15.08839476 55128,6917.882,95.438,540.389,539.105,0.0
52857.0,STARLINK-4199,PAYLOAD,2023-06-15 10:38:14,15.08839397,9.42e-05,53.2147,185.4226,78.7358,281.374,5.603e-05,6.04e-06,0.0,0 STARLINK-4199,1 52857U 22062AD  23166.44322651  .00000604  00000-0  56030-4 0  9992,2 52857  53.2147 185.4226 0000942  78.7358 281.3740 15.08839397 55224,6917.882,95.438,540.399,539.096,0.0
52857.0,STARLINK-4199,PAYLOAD,2023-06-15 23:21:19,15.08841341,9.51e-05,53.2148,183.0436,78.2431,281.8668,5.7276e-05,6.24e-06,0.0,0 STARLINK-4199,1 52857U 22062AD  23166.97314505  .00000624  00000-0  57276-4 0  9994,2 52857  53.2148 183.0436 0000951  78.2431 281.8668 15.08841341 55797,6917.876,95.437,540.399,539.083,0.0
52857.0,STARLINK-4199,PAYLOAD,2023-06-16 10:29:01,15.08845092,9.52e-05,53.2147,180.962,78.4561,281.6538,7.4331e-05,8.96e-06,0.0,0 STARLINK-4199,1 52857U 22062AD  23167.43682143  .00000896  00000-0  74331-4 0  9994,2 52857  53.2147 180.9620 0000952  78.4561 281.6538 15.08845092 55379,6917.865,95.437,540.388,539.071,0.0
52857.0,STARLINK-4199,PAYLOAD,2023-06-16 18:25:57,15.08841774,9.58e-05,53.2147,179.475,78.3105,281.7995,6.3951e-05,7.3e-06,0.0,0 STARLINK-4199,1 52857U 22062AD  23167.76802275  .00000730  00000-0  63951-4 0  9993,2 52857  53.2147 179.4750 0000958  78.3105 281.7995 15.08841774 55422,6917.875,95.437,540.403,539.077,0.0
52857.0,STARLINK-4199,PAYLOAD,2023-06-17 07:09:02,15.0884165,9.77e-05,53.2148,177.0962,78.9204,281.1898,5.5786e-05,6e-06,0.0,0 STARLINK-4199,1 52857U 22062AD  23168.29794283  .00000600  00000-0  55786-4 0  9994,2 52857  53.2148 177.0962 0000977  78.9204 281.1898 15.08841650 55990,6917.875,95.437,540.416,539.064,0.0
52857.0,STARLINK-4199,PAYLOAD,2023-06-17 10:19:48,15.08841016,9.59e-05,53.2152,176.5008,82.2431,277.867,3.9263e-05,3.37e-06,0.0,0 STARLINK-4199,1 52857U 22062AD  23168.43042333  .00000337  00000-0  39263-4 0  9991,2 52857  53.2152 176.5008 0000959  82.2431 277.8670 15.08841016 55525,6917.877,95.437,540.406,539.079,0.0
52857.0,STARLINK-4199,PAYLOAD,2023-06-18 06:59:49,15.08838997,9.71e-05,53.2153,172.6349,81.8673,278.2429,-7.8125e-06,-4.12e-06,0.0,0 STARLINK-4199,1 52857U 22062AD  23169.29154619 -.00000412  00000-0 -78125-5 0  9994,2 52857  53.2153 172.6349 0000971  81.8673 278.2429 15.08838997 56148,6917.883,95.438,540.42,539.077,0.0
52857.0,STARLINK-4199,PAYLOAD,2023-06-19 06:50:37,15.08831749,9.85e-05,53.2152,168.1746,81.0841,279.0263,-1.6772e-05,-5.55e-06,0.0,0 STARLINK-4199,1 52857U 22062AD  23170.28515339 -.00000555  00000-0 -16772-4 0  9992,2 52857  53.2152 168.1746 0000985  81.0841 279.0263 15.08831749 56291,6917.906,95.438,540.452,539.089,0.0
52857.0,STARLINK-4199,PAYLOAD,2023-06-19 16:22:56,15.0883051,9.82e-05,53.2151,166.39,78.4391,281.6711,-3.7598e-06,-3.48e-06,0.0,0 STARLINK-4199,1 52857U 22062AD  23170.68259579 -.00000348  00000-0 -37598-5 0  9997,2 52857  53.2151 166.3900 0000982  78.4391 281.6711 15.08830510 55863,6917.909,95.438,540.454,539.095,0.0
52857.0,STARLINK-4199,PAYLOAD,2023-06-20 06:41:24,15.08834111,0.0001014,53.2153,163.7145,80.2154,279.8952,4.3891e-05,4.11e-06,0.0,0 STARLINK-4199,1 52857U 22062AD  23171.27875520  .00000411  00000-0  43891-4 0  9994,2 52857  53.2153 163.7145 0001014  80.2154 279.8952 15.08834111 55959,6917.898,95.438,540.465,539.062,0.0
52857.0,STARLINK-4199,PAYLOAD,2023-06-21 00:10:38,15.08835856,0.0001019,53.2153,160.4435,80.6568,279.4539,0.00011257,1.504e-05,0.0,0 STARLINK-4199,1 52857U 22062AD  23172.00739387  .00001504  00000-0  11257-3 0  9990,2 52857  53.2153 160.4435 0001019  80.6568 279.4539 15.08835856 56554,6917.893,95.438,540.463,539.053,0.0
52857.0,STARLINK-4199,PAYLOAD,2023-06-21 08:07:34,15.08841054,0.0001046,53.2154,158.957,81.9259,278.1852,0.00015213,2.134e-05,0.0,0 STARLINK-4199,1 52857U 22062AD  23172.33859065  .00002134  00000-0  15213-3 0  9998,2 52857  53.2154 158.9570 0001046  81.9259 278.1852 15.08841054 56111,6917.877,95.437,540.466,539.019,0.0
52857.0,STARLINK-4199,PAYLOAD,2023-06-21 16:04:30,15.08836479,0.0001061,53.2153,157.4706,86.1755,273.9359,0.00010316,1.354e-05,0.0,0 STARLINK-4199,1 52857U 22062AD  23172.66979549  .00001354  00000-0  10316-3 0  9996,2 52857  53.2153 157.4706 0001061  86.1755 273.9359 15.08836479 56165,6917.891,95.438,540.49,539.022,0.0
52857.0,STARLINK-4199,PAYLOAD,2023-06-22 07:58:21,15.08841164,0.0001157,53.2155,154.496,86.3264,273.786,6.9236e-05,8.14e-06,0.0,0 STARLINK-4199,1 52857U 22062AD  23173.33219435  .00000814  00000-0  69236-4 0  9998,2 52857  53.2155 154.4960 0001157  86.3264 273.7860 15.08841164 56756,6917.877,95.437,540.542,538.941,0.0
52857.0,STARLINK-4199,PAYLOAD,2023-06-23 15:46:04,15.08841909,0.000113,53.2153,148.5485,84.4649,275.6471,1.2492e-05,-8.9e-07,0.0,0 STARLINK-4199,1 52857U 22062AD  23174.65699467 -.00000089  00000-0  12492-4 0  9998,2 52857  53.2153 148.5485 0001130  84.4649 275.6471 15.08841909 56955,6917.875,95.437,540.521,538.958,0.0
52857.0,STARLINK-4199,PAYLOAD,2023-06-25 02:44:33,15.08841174,0.0001158,53.2151,142.0069,85.9672,274.1453,7.585e-05,9.2e-06,0.0,0 STARLINK-4199,1 52857U 22062AD  23176.11427397  .00000920  00000-0  75850-4 0  9992,2 52857  53.2151 142.0069 0001158  85.9672 274.1453 15.08841174 57175,6917.877,95.437,540.543,538.941,0.0
52857.0,STARLINK-4199,PAYLOAD,2023-06-25 07:30:42,15.08850164,0.0001201,53.216,141.114,90.4843,269.6287,9.7781e-05,1.269e-05,0.0,0 STARLINK-4199,1 52857U 22062AD  23176.31298745  .00001269  00000-0  97781-4 0  9991,2 52857  53.2160 141.1140 0001201  90.4843 269.6287 15.08850164 57202,6917.849,95.437,540.545,538.883,0.0
52857.0,STARLINK-4199,PAYLOAD,2023-06-26 02:35:20,15.08837385,0.0001224,53.217,137.549,85.1911,274.9221,5.1967e-05,5.39e-06,0.0,0 STARLINK-4199,1 52857U 22062AD  23177.10787743  .00000539  00000-0  51967-4 0  9995,2 52857  53.2170 137.5490 0001224  85.1911 274.9221 15.08837385 57322,6917.888,95.438,540.6,538.907,0.0
52857.0,STARLINK-4199,PAYLOAD,2023-06-27 02:26:08,15.0882807,8.59e-05,53.2169,133.0889,96.6663,263.4427,5.3007e-05,5.56e-06,0.0,0 STARLINK-4199,1 52857U 22062AD  23178.10148351  .00000556  00000-0  53007-4 0  9998,2 52857  53.2169 133.0889 0000859  96.6663 263.4427 15.08828070 57475,6917.917,95.438,540.376,539.188,0.0
